#dP2021  5 30 12  0  0.00000000      96 __u+U ITR00 EXT  IAC
## 2160  43200.00000000   900.00000000 59364 0.5000000000000
+  116   C06C07C08C09C10C11C12C13C14C16C19C20C21C22C23C24C25
+        C26C27C28C29C30C32C33C34C35C36C37C38C39C40C41C42C43
+        C44C45C46E01E02E03E04E05E07E08E09E11E12E13E14E15E18
+        E19E21E24E25E26E27E30E31E33E36G01G02G03G04G05G06G07
+        G08G09G10G12G13G14G15G16G17G18G19G20G21G22G23G24G25
+        G26G27G28G29G30G31G32J01J02J03R01R02R03R04R05R07R08
+        R09R11R12R13R14R15R16R17R18R19R20R21R22R24  0  0  0
++        10  8 12 10  9  9  8 15  8 10  9  8  9  8  9 10  7
++         8 10 11  7  8  8  8 10  7  8 10 11  8  8 10  7  9
++        10  9  8  8  7  9  7  7  8  8  9  8  8  8  8  8  8
++         7  7  7  7  7  9  8  7  8  7  8  8  9  7  9  8  9
++         6  7  7  9  8  7  7  9  8  8  8  9  7  9  8  8  7
++         9  8  8  8  8  9  8 10  9  9 10  9  9  8  9  8  8
++         9  7  8  8  7  8  8  8  9 10  9  9  8  8  0  0  0
%c M  cc GPS ccc cccc cccc cccc cccc ccccc ccccc ccccc ccccc
%c cc cc ccc ccc cccc cccc cccc cccc ccccc ccccc ccccc ccccc
%f  0.0000000  0.000000000  0.00000000000  0.000000000000000
%f  0.0000000  0.000000000  0.00000000000  0.000000000000000
%i    0    0    0    0      0      0      0      0         0
%i    0    0    0    0      0      0      0      0         0
/* IAC                                ULTRA-RAPID PREDICTION
/* S/V CLOCKS ARE ALIGNED TO GNSS TIME                      
/* G:C1WC2W R:C1PC2P E:C1XC5X C:C2IC6I J:C1CC2S             
/* PCV:IGS14_2148 OL/AL:FES2004  NONE     YN ORB:CoN CLK:CoN
*  2021 05 31 10 30  0.00000000
PC06 -24120.218368  33914.562496  -7777.016373    447.542368
PC07  -9031.606272  32051.197166 -25312.915930    123.611749
PC08 -15277.404129  17745.526469  35104.891751   -891.821158
PC09 -12596.304639  33967.373967 -21627.551594    483.417699
PC10   3804.014710  39133.100483 -14393.515842    -35.717699
PC11  21999.661893  -4348.014518  16687.944165    372.351359
PC12  10129.470525  11528.631321  23333.779943    861.875107
PC13  -1301.522406  22741.473288  35590.024651    281.843464
PC14  16585.035363   4923.377648 -21854.018968    880.778076
PC16 -21426.308266  34711.812737 -10976.524609   -869.860758
PC19 -14771.481474   6385.868817  22827.686395    855.002035
PC20 -15914.987385 -13783.918093  18354.133717   -894.576598
PC21   7509.009243  26731.781735  -2617.274039   -937.555932
PC22  -5064.789226  23482.384529  14181.143494   -952.637727
PC23   9317.617717 -13777.763065  22413.709170   -921.597071
PC24  25075.470600  11555.987899  -4133.058086   -872.783100
PC25  24225.648859  -2680.377144  13602.886618   -908.617323
PC26  12362.904731  17317.980452 -18078.292174    899.358914
PC27  -1427.079009 -18116.833119 -21195.243086    540.562897
PC28  15662.661723 -21428.549101  -8626.287423    -67.973368
PC29 -23010.111580  13013.207121  -8959.689635    399.660306
PC30 -17418.835340  -4046.656960 -21438.389349    468.956097
PC32  -7749.998341 -26686.181611   2663.213912   -928.244790
PC33  14757.024970  -6435.500381 -22784.263014   -936.676620
PC34  17874.344350   3452.138845  21129.754760   -661.153498
PC35 -15175.799362  21929.829465   8268.843897   -255.402606
PC36 -24452.473292   1832.966317 -13298.283697   -726.841095
PC37 -10990.970041 -17660.670085  18614.036796   -882.763563
PC38 -11242.823539  21519.888010  34459.130974    152.219716
PC39 -17440.337223  36257.259429 -12839.808126     31.437884
PC40  -1911.478934  37227.410730 -19538.590963    166.315208
PC41   5156.076280 -23352.533936 -14327.527143   -945.238637
PC42  15778.064297  14499.137283 -17818.170682   -913.613918
PC43  23118.450494 -12476.067187   9368.276734   -755.001314
PC44   1859.533524  18282.734414  20997.651119    215.538178
PC45  -9105.926753  13740.096929 -22509.627803    454.630985
PC46 -25466.536327 -10915.306615   3189.840452    245.971244
PE01  -1297.679909  19842.685274 -21925.986082  -1119.296282
PE02   1187.025474 -19903.156798  21871.697126    222.837270
PE03   8632.379395 -28304.921061   -992.031975   -436.835971
PE04   5121.381812  24248.108605 -16171.439126   -782.449585
PE05  17542.675797 -15788.886828 -17858.182151   -276.679384
PE07 -16134.680038  -5802.384054  24141.371562   -544.229263
PE08  -5384.148974 -23997.487651  16490.270299   5993.483356
PE09  16080.020750   5457.830467 -24234.304892   5649.516487
PE11  26274.935457   2132.578317  13431.318527   5911.601780
PE12   9440.478172  13950.719927  24331.671858   5183.605614
PE13 -26075.445499  -2302.941992 -13828.636860    417.120555
PE14  12926.850694   7612.152339  18196.491240  -1449.847312
PE15  -9536.879785 -13822.651078 -24374.903488    811.356882
PE18 -15567.019254 -13876.944340 -24822.604746  -1587.529309
PE19 -10054.389851  27658.562427   3190.922925    290.485596
PE21 -17220.252301   5073.118420 -23536.270495   -667.997451
PE24  23742.082456  13989.526561  10820.632015   -929.401250
PE25  17353.551632  -4884.401152  23482.161526   -535.492641
PE26 -26940.616136  10903.830994   5616.214795   1747.779797
PE27 -23821.903615 -13215.186995 -11568.366397    -44.123713
PE30 -15578.664033 -23857.863298   7988.394468   2901.583169
PE31  16384.734479  23604.466205  -7102.434383   -481.723803
PE33 -12598.273447  17184.859717  20550.355232   -469.205370
PE36  27222.957353 -10550.320931  -4843.272738   -214.516652
PG01  -9711.547431 -13499.281313 -21054.826592    672.974666
PG02 -15538.034300  14051.458918  17011.678465   -608.666911
PG03 -12105.343711 -23366.777817  -4100.912488   -178.909469
PG04  -2936.690390 -19961.972651  17252.398488   -198.312006
PG05    961.622782  20873.862545  16135.649813    -43.543204
PG06 -24486.247797   6746.534143   7934.531491     21.472419
PG07 -22414.264549  -7879.434848  12724.041270    165.813386
PG08   4195.611519 -24239.804093  -9615.108856    -23.302005
PG09 -11897.497848 -10290.138452  21341.693177   -348.631591
PG10  18191.893650   3845.248890 -18951.525036   -132.893935
PG12   9155.126808  24367.179323  -5898.439908    -48.517089
PG13 -12768.857097  22988.224871  -3297.473848    138.860947
PG14 -18166.041448  -4393.860315 -18894.191230     77.575041
PG15   -874.747125  24543.884817 -10013.690125   -145.645638
PG16   5046.718886 -17589.078444  18832.053333   -333.812806
PG17 -17623.825215   5695.262291 -18612.119910    451.043048
PG18  24175.013414   5609.642273   9546.312076    348.710132
PG19 -18968.388938  13136.684994 -13331.725775      7.184955
PG20   6236.394280  21992.315091  13704.352122    521.642685
PG21  -1369.137361 -14897.670226 -21231.323151    121.883298
PG22  -6144.141715 -22447.075280 -12791.358783   -600.506402
PG23  19496.873992  14046.220233 -11391.635858    101.733756
PG24   4613.558684  15353.049773 -21449.262331    108.552997
PG25  17329.799168  19595.708216   5097.880129    147.273513
PG26  12142.702208  -9795.345015  21429.139037     92.362022
PG27  12141.765382 -23378.899161    678.282444   -139.321438
PG28 -15373.113439   1624.129680 -21024.067787    562.458736
PG29  10117.180213  11304.012632  21744.588277   -356.278898
PG30 -26679.985631    705.749711    358.093760   -433.077309
PG31  23330.377343  -8108.878685  10278.280087   -120.388517
PG32  17888.917484  -8544.987908 -17478.100033     19.963652
PJ01 -28011.352464  24876.409858  24312.187154   -387.597422
PJ02 -22928.507720  17675.853383 -26118.190133     -0.071145
PJ03 -28462.786570  31239.460667   5176.498008     -6.811387
PR01  10783.210810   8112.836620 -21636.200462     80.202380
PR02   8835.267715 -14245.450526 -19157.759034    480.655222
PR03   1692.740383 -24986.274444  -4661.657144     36.885111
PR04  -6165.619985 -21509.628291  12276.208011     89.194193
PR05 -10603.364247  -6080.768096  22401.917143     72.717482
PR07  -1465.450429  25157.352408   4137.393375    -42.421402
PR08   6217.109043  21513.888011 -12170.930182    -59.282475
PR09 -15020.473095   3356.951214 -20346.851970     -4.434057
PR11  17278.107161  15065.255668 -11162.783561     -8.098836
PR12  22964.983426   8702.954919   6954.093537    233.344208
PR13  15374.384689  -2740.996418  20152.346718    -55.539518
PR14  -1874.543365 -13011.913637  21874.529403     64.828781
PR15 -17361.623812 -15322.839351  10721.706962    103.531174
PR16 -22997.265497  -7465.635458  -7947.387929    -15.757360
PR17  11278.170596 -15627.426575 -16728.620947    428.651530
PR18  -4953.248041  -9203.665436 -23259.607767     78.408350
PR19 -18068.981564    951.307147 -17985.488616   -145.890553
PR20 -22287.744598  12456.015146     84.694449    -50.076408
PR21 -10253.481820  15322.022003  17610.377478   -213.028503
PR22   5754.780467   8666.273769  23267.982968   -115.375010
PR24  21889.668763 -13082.692349   -794.411013     44.737716
EOF
